{"fetched_at":"2026-03-29T16:36:15Z","count":15609,"tles":[{"name":"STARLINK-32084","line1":"1 60347U 24136U   26087.93433210  .00000182  00000+0  18276-4 0  9992","line2":"2 60347  53.1596 346.0849 0001050  52.2527 307.8569 15.30179523 92616","category":"Starlink"}]}