{
  "norad_id": 60347,
  "name": "STARLINK-32084",
  "history": [
    {
      "epoch": "2026-03-28T22:25:26.293440Z",
      "apogee_km": 475.9958191192709,
      "perigee_km": 474.5566023450174,
      "latitude_deg": 2.148669801973929e-05,
      "longitude_deg": -176.62229567174813,
      "height_km": 475.73429985081185,
      "semi_major_axis_km": 6853.413210732144,
      "eccentricity": 0.000105,
      "inclination_deg": 53.1596,
      "raan_deg": 346.0849,
      "arg_perigee_deg": 52.2527,
      "mean_anomaly_deg": 307.8569,
      "mean_motion_rev_day": 15.30179523
    }
  ]
}